{
  "57258": {
    "noradId": "57258",
    "tle": [
      "1 57258C 23094AS  26002.82895833  .00002092  00000+0  15440-3 0    25",
      "2 57258  43.0036  15.0913 0001350 269.7922 101.3789 15.02532675    16"
    ]
  },
  "57260": {
    "noradId": "57260",
    "tle": [
      "1 57260C 23094AU  26002.82687500  .00004837  00000+0  35696-3 0    22",
      "2 57260  43.0037  15.0157 0001358 264.6145 131.3634 15.02527203    12"
    ]
  },
  "57261": {
    "noradId": "57261",
    "tle": [
      "1 57261C 23094AV  26002.82548611 -.00008802  00000+0 -64965-3 0    21",
      "2 57261  43.0037  28.0286 0001404 268.3049 121.5618 15.02533915    16"
    ]
  },
  "57262": {
    "noradId": "57262",
    "tle": [
      "1 57262C 23094AW  26002.82756944  .00004116  00000+0  30373-3 0    20",
      "2 57262  43.0037  15.1285 0001392 263.2862  88.3661 15.02528630    12"
    ]
  },
  "57263": {
    "noradId": "57263",
    "tle": [
      "1 57263C 23094AX  26002.82965278 -.00006437  00000+0 -47468-3 0    26",
      "2 57263  43.0037  27.9913 0001413 275.2400 143.0443 15.02563550    14"
    ]
  },
  "57264": {
    "noradId": "57264",
    "tle": [
      "1 57264C 23094AY  26002.82618056  .00004138  00000+0  30533-3 0    25",
      "2 57264  43.0035  14.9620 0001398 263.9236 152.3329 15.02528049    17"
    ]
  },
  "57265": {
    "noradId": "57265",
    "tle": [
      "1 57265C 23094AZ  26002.82618056  .00791260  00000+0  16431-1 0    24",
      "2 57265  43.0028   7.9456 0001807 277.4332 228.0370 15.44040061    17"
    ]
  },
  "57290": {
    "noradId": "57290",
    "tle": [
      "1 57290C 23096A   26002.82131944  .00000313  00000+0  23071-4 0    23",
      "2 57290  43.0011 221.4627 0001309 266.0274 129.3419 15.02532401    11"
    ]
  },
  "57291": {
    "noradId": "57291",
    "tle": [
      "1 57291C 23096B   26002.82618056 -.00000029  00000+0 -21436-5 0    28",
      "2 57291  43.0009 221.3893 0001363 262.6235 177.0956 15.02537526    11"
    ]
  },
  "57292": {
    "noradId": "57292",
    "tle": [
      "1 57292C 23096C   26002.82618056  .00077026  00000+0  11846-2 0    29",
      "2 57292  42.9782 177.5003 0034829 285.5939 252.6346 15.52535484    10"
    ]
  },
  "57294": {
    "noradId": "57294",
    "tle": [
      "1 57294C 23096E   26002.81923611  .00002261  00000+0  16683-3 0    20",
      "2 57294  43.0012 221.3002 0001234 262.9840 193.2267 15.02530687    18"
    ]
  },
  "57296": {
    "noradId": "57296",
    "tle": [
      "1 57296C 23096G   26002.82687500  .00592410  00000+0  69416-2 0    28",
      "2 57296  42.9812 176.7063 0034391 292.3959 244.6124 15.59271677    10"
    ]
  },
  "57298": {
    "noradId": "57298",
    "tle": [
      "1 57298C 23096J   26002.82409722  .00850520  00000+0  74077-2 0    26",
      "2 57298  42.9777 169.5768 0033363 302.9596 303.6399 15.66481180    17"
    ]
  },
  "57300": {
    "noradId": "57300",
    "tle": [
      "1 57300C 23096L   26002.82270833 -.00000682  00000+0 -50310-4 0    23",
      "2 57300  43.0009 221.1023 0001248 264.6871 282.4751 15.02529654    12"
    ]
  },
  "57301": {
    "noradId": "57301",
    "tle": [
      "1 57301C 23096M   26002.82409722  .00008496  00000+0  62734-3 0    26",
      "2 57301  43.0008 221.0573 0001424 259.2623 313.5379 15.02501785    19"
    ]
  },
  "57302": {
    "noradId": "57302",
    "tle": [
      "1 57302C 23096N   26002.82479167  .00009680  00000+0  71424-3 0    29",
      "2 57302  43.0010 220.9884 0001289 260.7029 333.6937 15.02525169    17"
    ]
  },
  "57303": {
    "noradId": "57303",
    "tle": [
      "1 57303C 23096P   26002.82409722  .00450190  00000+0  65115-2 0    25",
      "2 57303  42.9850 177.7253 0033852 290.3288 184.4078 15.53877632    13"
    ]
  },
  "57305": {
    "noradId": "57305",
    "tle": [
      "1 57305C 23096R   26002.82618056  .00692320  00000+0  73404-2 0    22",
      "2 57305  42.9816 174.9651 0034296 296.6718 240.7005 15.61730273    12"
    ]
  },
  "57306": {
    "noradId": "57306",
    "tle": [
      "1 57306C 23096S   26002.82479167  .00639340  00000+0  70402-2 0    29",
      "2 57306  42.9762 170.8593 0033571 300.3170 138.5773 15.60853964    11"
    ]
  },
  "57307": {
    "noradId": "57307",
    "tle": [
      "1 57307C 23096T   26002.82340278  .00487730  00000+0  68252-2 0    24",
      "2 57307  42.9785 176.9220 0033973 290.9028 127.6529 15.54724130    16"
    ]
  },
  "57310": {
    "noradId": "57310",
    "tle": [
      "1 57310C 23096W   26002.82270833  .00009813  00000+0  72397-3 0    25",
      "2 57310  43.0006 195.0357 0001313 262.7926  11.5145 15.02531251    16"
    ]
  },
  "57311": {
    "noradId": "57311",
    "tle": [
      "1 57311C 23096X   26002.82548611  .00590120  00000+0  69719-2 0    27",
      "2 57311  42.9769 176.6362 0034304 291.7572 252.8024 15.59065382    12"
    ]
  },
  "57328": {
    "noradId": "57328",
    "tle": [
      "1 57328C 23099A   26002.82131944  .00006868  00000+0  50680-3 0    24",
      "2 57328  43.0015 247.2272 0001442 265.4188 120.9059 15.02528828    19"
    ]
  },
  "57329": {
    "noradId": "57329",
    "tle": [
      "1 57329C 23099B   26002.82479167  .00000035  00000+0  26161-5 0    26",
      "2 57329  43.0017 247.0706 0001313 265.5302 193.6966 15.02537213    10"
    ]
  },
  "57330": {
    "noradId": "57330",
    "tle": [
      "1 57330C 23099C   26002.82479167  .00004708  00000+0  34738-3 0    26",
      "2 57330  43.0015 247.1649 0000916 262.4780 160.6734 15.02533599    11"
    ]
  },
  "57331": {
    "noradId": "57331",
    "tle": [
      "1 57331C 23099D   26002.82965278 -.00001426  00000+0 -10523-3 0    22",
      "2 57331  43.0018 247.1224 0001336 255.1749 200.3196 15.02537962    17"
    ]
  },
  "57332": {
    "noradId": "57332",
    "tle": [
      "1 57332C 23099E   26002.82687500 -.00011696  00000+0 -86308-3 0    26",
      "2 57332  43.0023 247.1071 0001307 273.0542 179.4247 15.02544466    12"
    ]
  },
  "57333": {
    "noradId": "57333",
    "tle": [
      "1 57333C 23099F   26002.82826389 -.00004650  00000+0 -34314-3 0    29",
      "2 57333  43.0018 247.0856 0001385 268.3219 197.6770 15.02538953    18"
    ]
  },
  "57334": {
    "noradId": "57334",
    "tle": [
      "1 57334C 23099G   26002.82479167 -.00016114  00000+0 -11890-2 0    29",
      "2 57334  43.0016 247.0258 0001437 261.7999 215.4589 15.02549760    18"
    ]
  }
}