OBJECT_NAME,OBJECT_ID,EPOCH,MEAN_MOTION,ECCENTRICITY,INCLINATION,RA_OF_ASC_NODE,ARG_OF_PERICENTER,MEAN_ANOMALY,EPHEMERIS_TYPE,CLASSIFICATION_TYPE,NORAD_CAT_ID,ELEMENT_SET_NO,REV_AT_EPOCH,BSTAR,MEAN_MOTION_DOT,MEAN_MOTION_DDOT,RMS,DATA_SOURCE
STARLINK-5476,2023-094AS,2026-01-02T19:53:41.999971,15.02532675,.000135,43.0036,15.0913,269.7922,101.3789,0,C,57258,2,1,.1544E-3,.20924E-4,0,0.261,SpaceX-E
STARLINK-5026,2023-094AU,2026-01-02T19:50:42.000000,15.02527203,.0001358,43.0037,15.0157,264.6145,131.3634,0,C,57260,2,1,.35696E-3,.48373E-4,0,0.276,SpaceX-E
STARLINK-5485,2023-094AV,2026-01-02T19:48:41.999990,15.02533915,.0001404,43.0037,28.0286,268.3049,121.5618,0,C,57261,2,1,-.64965E-3,-.88021E-4,0,0.384,SpaceX-E
STARLINK-5504,2023-094AW,2026-01-02T19:51:41.999962,15.02528630,.0001392,43.0037,15.1285,263.2862,88.3661,0,C,57262,2,1,.30373E-3,.4116E-4,0,0.283,SpaceX-E
STARLINK-5509,2023-094AX,2026-01-02T19:54:42.000019,15.02563550,.0001413,43.0037,27.9913,275.2400,143.0443,0,C,57263,2,1,-.47468E-3,-.64368E-4,0,0.318,SpaceX-E
STARLINK-5858,2023-094AY,2026-01-02T19:49:42.000038,15.02528049,.0001398,43.0035,14.9620,263.9236,152.3329,0,C,57264,2,1,.30533E-3,.41376E-4,0,0.279,SpaceX-E
STARLINK-5890,2023-094AZ,2026-01-02T19:49:42.000038,15.44040061,.0001807,43.0028,7.9456,277.4332,228.0370,0,C,57265,2,1,.16431E-1,.79126E-2,0,0.420,SpaceX-E
STARLINK-30198,2023-096A,2026-01-02T19:42:41.999962,15.02532401,.0001309,43.0011,221.4627,266.0274,129.3419,0,C,57290,2,1,.23071E-4,.31266E-5,0,0.257,SpaceX-E
STARLINK-30239,2023-096B,2026-01-02T19:49:42.000038,15.02537526,.0001363,43.0009,221.3893,262.6235,177.0956,0,C,57291,2,1,-.21436E-5,-.29052E-6,0,0.311,SpaceX-E
STARLINK-30210,2023-096C,2026-01-02T19:49:42.000038,15.52535484,.0034829,42.9782,177.5003,285.5939,252.6346,0,C,57292,2,1,.11846E-2,.77026E-3,0,0.282,SpaceX-E
STARLINK-30235,2023-096E,2026-01-02T19:39:41.999990,15.02530687,.0001234,43.0012,221.3002,262.9840,193.2267,0,C,57294,2,1,.16683E-3,.22608E-4,0,0.260,SpaceX-E
STARLINK-30238,2023-096G,2026-01-02T19:50:42.000000,15.59271677,.0034391,42.9812,176.7063,292.3959,244.6124,0,C,57296,2,1,.69416E-2,.59241E-2,0,0.287,SpaceX-E
STARLINK-30241,2023-096J,2026-01-02T19:46:41.999981,15.66481180,.0033363,42.9777,169.5768,302.9596,303.6399,0,C,57298,2,1,.74077E-2,.85052E-2,0,0.301,SpaceX-E
STARLINK-30236,2023-096L,2026-01-02T19:44:41.999971,15.02529654,.0001248,43.0009,221.1023,264.6871,282.4751,0,C,57300,2,1,-.5031E-4,-.68171E-5,0,0.266,SpaceX-E
STARLINK-30201,2023-096M,2026-01-02T19:46:41.999981,15.02501785,.0001424,43.0008,221.0573,259.2623,313.5379,0,C,57301,2,1,.62734E-3,.84963E-4,0,0.260,SpaceX-E
STARLINK-30233,2023-096N,2026-01-02T19:47:42.000029,15.02525169,.0001289,43.0010,220.9884,260.7029,333.6937,0,C,57302,2,1,.71424E-3,.96796E-4,0,0.262,SpaceX-E
STARLINK-30232,2023-096P,2026-01-02T19:46:41.999981,15.53877632,.0033852,42.9850,177.7253,290.3288,184.4078,0,C,57303,2,1,.65115E-2,.45019E-2,0,0.279,SpaceX-E
STARLINK-30177,2023-096R,2026-01-02T19:49:42.000038,15.61730273,.0034296,42.9816,174.9651,296.6718,240.7005,0,C,57305,2,1,.73404E-2,.69232E-2,0,0.294,SpaceX-E
STARLINK-30200,2023-096S,2026-01-02T19:47:42.000029,15.60853964,.0033571,42.9762,170.8593,300.3170,138.5773,0,C,57306,2,1,.70402E-2,.63934E-2,0,0.293,SpaceX-E
STARLINK-30209,2023-096T,2026-01-02T19:45:42.000019,15.54724130,.0033973,42.9785,176.9220,290.9028,127.6529,0,C,57307,2,1,.68252E-2,.48773E-2,0,0.287,SpaceX-E
STARLINK-30184,2023-096W,2026-01-02T19:44:41.999971,15.02531251,.0001313,43.0006,195.0357,262.7926,11.5145,0,C,57310,2,1,.72397E-3,.9813E-4,0,0.262,SpaceX-E
STARLINK-30175,2023-096X,2026-01-02T19:48:41.999990,15.59065382,.0034304,42.9769,176.6362,291.7572,252.8024,0,C,57311,2,1,.69719E-2,.59012E-2,0,0.288,SpaceX-E
STARLINK-6290,2023-099A,2026-01-02T19:42:41.999962,15.02528828,.0001442,43.0015,247.2272,265.4188,120.9059,0,C,57328,2,1,.5068E-3,.68684E-4,0,0.276,SpaceX-E
STARLINK-6138,2023-099B,2026-01-02T19:47:42.000029,15.02537213,.0001313,43.0017,247.0706,265.5302,193.6966,0,C,57329,2,1,.26161E-5,.35456E-6,0,0.252,SpaceX-E
STARLINK-6212,2023-099C,2026-01-02T19:47:42.000029,15.02533599,.0000916,43.0015,247.1649,262.4780,160.6734,0,C,57330,2,1,.34738E-3,.47082E-4,0,0.291,SpaceX-E
STARLINK-6234,2023-099D,2026-01-02T19:54:42.000019,15.02537962,.0001336,43.0018,247.1224,255.1749,200.3196,0,C,57331,2,1,-.10523E-3,-.14262E-4,0,0.311,SpaceX-E
STARLINK-5831,2023-099E,2026-01-02T19:50:42.000000,15.02544466,.0001307,43.0023,247.1071,273.0542,179.4247,0,C,57332,2,1,-.86308E-3,-.11696E-3,0,0.297,SpaceX-E
STARLINK-5585,2023-099F,2026-01-02T19:52:42.000010,15.02538953,.0001385,43.0018,247.0856,268.3219,197.6770,0,C,57333,2,1,-.34314E-3,-.46502E-4,0,0.278,SpaceX-E
STARLINK-5589,2023-099G,2026-01-02T19:47:42.000029,15.02549760,.0001437,43.0016,247.0258,261.7999,215.4589,0,C,57334,2,1,-.1189E-2,-.16114E-3,0,0.322,SpaceX-E
